[{"OBJECT_NAME":"STARLINK-30582","OBJECT_ID":"2023-158J","EPOCH":"2026-03-09T22:43:59.076192","MEAN_MOTION":15.27356294,"ECCENTRICITY":0.00011668,"INCLINATION":43.0027,"RA_OF_ASC_NODE":25.2286,"ARG_OF_PERICENTER":260.4378,"MEAN_ANOMALY":99.6342,"EPHEMERIS_TYPE":0,"CLASSIFICATION_TYPE":"U","NORAD_CAT_ID":58059,"ELEMENT_SET_NO":999,"REV_AT_EPOCH":13361,"BSTAR":0.0033060368,"MEAN_MOTION_DOT":0.00091219,"MEAN_MOTION_DDOT":0},{"OBJECT_NAME":"TRANSPORTER-1 OBJECT AA","OBJECT_ID":"2021-006AA","EPOCH":"2026-03-09T22:58:14.761920","MEAN_MOTION":15.29982294,"ECCENTRICITY":0.00086604,"INCLINATION":97.2381,"RA_OF_ASC_NODE":112.457,"ARG_OF_PERICENTER":185.709,"MEAN_ANOMALY":174.4054,"EPHEMERIS_TYPE":0,"CLASSIFICATION_TYPE":"U","NORAD_CAT_ID":47437,"ELEMENT_SET_NO":999,"REV_AT_EPOCH":28414,"BSTAR":0.0002197941,"MEAN_MOTION_DOT":6.312e-5,"MEAN_MOTION_DDOT":0}]
